OBJECT_NAME,OBJECT_ID,EPOCH,MEAN_MOTION,ECCENTRICITY,INCLINATION,RA_OF_ASC_NODE,ARG_OF_PERICENTER,MEAN_ANOMALY,EPHEMERIS_TYPE,CLASSIFICATION_TYPE,NORAD_CAT_ID,ELEMENT_SET_NO,REV_AT_EPOCH,BSTAR,MEAN_MOTION_DOT,MEAN_MOTION_DDOT
STARLINK-31064,2023-203P,2025-08-31T23:08:05.776800,15.25921335,.00011158,42.9999,61.2916,262.7934,97.2790,0,U,58631,999,9568,.11580527E-3,.2774E-4,0
STARLINK-31081,2023-203Q,2025-08-31T21:30:35.282880,15.25908563,.00012372,43.0013,61.6424,265.1650,94.9060,0,U,58632,999,9573,.64536377E-4,.1431E-4,0
STARLINK-31022,2023-203R,2025-08-31T23:11:20.113728,15.25930610,.00016568,43.0010,61.3093,255.6058,104.4609,0,U,58633,999,9574,.12397681E-3,.2989E-4,0
STARLINK-31025,2023-203S,2025-08-31T22:51:00.726336,15.25912501,.00009792,43.0003,57.6921,268.2493,91.8246,0,U,58634,999,9578,.72110786E-4,.1629E-4,0
STARLINK-31018,2023-203T,2025-09-01T04:07:08.876928,15.27589827,.00011419,42.9994,57.6899,266.1256,93.9465,0,U,58635,999,9580,.21706036E-3,.5717E-4,0
STARLINK-31008,2023-203U,2025-09-01T04:10:51.950496,15.27569987,.00005025,42.9973,57.7086,328.2342,31.8479,0,U,58636,999,9580,.26021051E-4,.454E-5,0
STARLINK-31077,2023-203V,2025-09-01T04:01:37.043040,15.27570246,.00010601,43.0022,57.6549,290.1056,69.9682,0,U,58637,999,9580,-.33564544E-4,-.1185E-4,0
STARLINK-31078,2023-203W,2025-08-31T21:39:25.942176,15.27574734,.00008972,43.0017,59.1020,275.9797,84.0952,0,U,58638,999,9453,.57220261E-4,.1313E-4,0
STARLINK-31070,2023-203X,2025-09-01T04:16:24.509280,15.27574886,.00011398,43.0010,57.7354,284.7268,75.3457,0,U,58639,999,9457,.27034804E-4,.482E-5,0
STARLINK-31090,2023-203Y,2025-09-01T03:44:17.876544,15.27559184,.00003565,42.9994,49.7831,328.7442,31.3388,0,U,58640,999,9467,-.90271618E-4,-.2743E-4,0
TIANMU-1 11,2023-205A,2025-09-01T07:11:53.527776,15.22885167,.00079544,97.3712,265.7802,310.0533,50.0005,0,U,58645,999,9349,.3586615E-3,.8345E-4,0
TIANMU-1 12,2023-205B,2025-09-01T07:39:47.673792,15.22746002,.000591,97.3700,265.6394,291.3963,68.6642,0,U,58646,999,9348,.37269086E-3,.8635E-4,0
TIANMU-1 13,2023-205C,2025-09-01T06:54:01.066176,15.22745039,.00061739,97.3728,265.7698,265.3891,94.6640,0,U,58647,999,9347,.39455521E-3,.9147E-4,0
TIANMU-1 14,2023-205D,2025-09-01T08:03:37.256832,15.22740386,.00069901,97.3658,265.2613,271.0260,89.0176,0,U,58648,999,9348,.39578869E-3,.9176E-4,0
SHIYAN-24C 01,2023-206A,2025-08-30T17:17:14.721792,14.97031557,.0004722,97.3698,221.0934,91.0360,269.1404,0,U,58650,999,9183,.2232E-3,.2517E-4,0
SHIYAN-24C 02,2023-206B,2025-08-30T17:15:58.473792,14.97063063,.000205,97.3700,221.1052,54.5638,305.5776,0,U,58651,999,9183,.28118E-3,.3187E-4,0
SHIYAN-24C 03,2023-206C,2025-08-30T17:14:55.917600,14.97055199,.0001454,97.3688,221.0827,59.2761,300.8605,0,U,58652,999,9182,.13891E-3,.1547E-4,0
BEIDOU-3 M28,2023-207A,2025-08-31T21:06:18.418176,1.86230007,.00008299,55.4916,72.0815,32.5387,327.5264,0,U,58654,999,1145,0,-.9E-7,0
BEIDOU-3 M26,2023-207B,2025-08-31T16:16:09.751296,1.86231684,.00008191,55.4936,72.0745,248.7857,111.2649,0,U,58655,999,1143,0,-.12E-6,0
COSMOS 2574,2023-209A,2025-09-01T07:07:22.471968,15.88821779,.00056408,96.6415,136.1114,108.0950,252.0939,0,U,58658,999,9720,.34306951E-3,.95712E-3,.5035679E-5
TIANMU-1 19,2023-208A,2025-09-01T06:54:47.481984,15.25235440,.00043706,97.4321,355.7838,253.3723,106.7035,0,U,58660,999,9319,.4678319E-3,.11695E-3,0
TIANMU-1 20,2023-208B,2025-09-01T06:56:34.656000,15.26437128,.00066788,97.4259,356.1320,267.5360,92.5114,0,U,58661,999,9325,.46353278E-3,.12018E-3,0
TIANMU-1 21,2023-208C,2025-09-01T07:27:42.924672,15.28528680,.00063011,97.4305,357.6403,262.9545,97.0978,0,U,58662,999,9333,.49103269E-3,.13573E-3,0
TIANMU-1 22,2023-208D,2025-09-01T06:39:03.320928,15.25157174,.00028483,97.4317,355.8647,285.9672,74.1252,0,U,58663,999,9320,.45759018E-3,.11408E-3,0
MDQUBESAT-2,2023-185P,2025-09-01T03:48:34.939008,15.31395516,.00109521,97.5732,319.2363,201.1518,158.9271,0,U,58665,999,9306,.16062198E-2,.48967E-3,0
STARLINK-31113,2023-211B,2025-09-01T05:39:45.305856,15.27575806,.00010244,43.0031,74.9131,272.6750,87.3984,0,U,58668,999,9349,.28391573E-4,.519E-5,0
STARLINK-31128,2023-211C,2025-09-01T06:03:48.384576,15.27575317,.00013409,43.0043,75.0363,283.0801,76.9901,0,U,58669,999,9349,.13617764E-3,.3486E-4,0
STARLINK-31083,2023-211D,2025-09-01T05:34:11.762112,15.27580679,.00013437,43.0015,74.8823,271.9348,88.1350,0,U,58670,999,9349,.15531726E-3,.4014E-4,0
STARLINK-30828,2023-211E,2025-09-01T06:18:37.359360,15.27550674,.00020248,43.0050,75.1091,257.5790,102.4836,0,U,58671,999,9349,.57791171E-4,.1327E-4,0
STARLINK-31104,2023-211F,2025-09-01T05:28:38.697024,15.27578042,.000154,43.0024,74.8479,269.3676,90.7000,0,U,58672,999,9477,.58478177E-4,.1347E-4,0
STARLINK-31131,2023-211G,2025-08-31T23:25:09.933888,15.27600518,.00014576,43.0021,65.8765,255.1397,104.9293,0,U,58673,999,9485,.30573334E-3,.8166E-4,0
STARLINK-31124,2023-211H,2025-08-31T23:28:39.552384,15.27720697,.0002032,43.0012,76.4202,266.7868,93.2751,0,U,58674,999,9345,.42528968E-2,.119187E-2,0
STARLINK-31126,2023-211J,2025-09-01T05:23:05.825472,15.27575560,.00008092,43.0031,74.8097,294.5855,65.4912,0,U,58675,999,9349,.75618566E-4,.1819E-4,0
STARLINK-31066,2023-211K,2025-09-01T06:20:06.631296,15.02535222,.00011634,43.0021,183.9713,271.0140,89.0569,0,U,58676,999,9349,-.2272622E-5,-.234E-5,0
STARLINK-31058,2023-211L,2025-08-31T21:58:12.542880,15.27589146,.00015064,43.0030,76.8077,268.2525,91.8154,0,U,58677,999,9344,.60993948E-4,.1417E-4,0
STARLINK-31125,2023-211M,2025-08-31T22:31:32.003040,15.27525100,.00012976,43.0013,76.9786,280.0603,80.0103,0,U,58678,999,9461,.49139572E-3,.13262E-3,0
STARLINK-31110,2023-211N,2025-09-01T05:54:33.074496,15.27575863,.00011775,43.0053,74.9876,281.2536,78.8183,0,U,58679,999,9349,.6568227E-4,.1545E-4,0
STARLINK-31112,2023-211P,2025-09-01T06:05:39.474240,15.27574009,.00014292,43.0027,75.0472,292.3934,67.6766,0,U,58680,999,9467,.1373387E-4,.116E-5,0
STARLINK-31147,2023-211Q,2025-08-31T22:37:04.155744,15.27597956,.00017743,43.0026,77.0043,261.3447,98.7204,0,U,58681,999,9344,.10564064E-3,.2647E-4,0
STARLINK-31144,2023-211R,2025-09-01T05:26:47.660064,15.27576010,.00010647,43.0024,74.8354,263.3028,96.7703,0,U,58682,999,9349,.34043456E-4,.675E-5,0
STARLINK-31095,2023-211S,2025-08-31T22:55:34.794048,15.27590490,.00012933,42.9988,77.1002,281.1181,78.9525,0,U,58683,999,9471,.84328555E-4,.206E-4,0
STARLINK-31107,2023-211T,2025-09-01T05:21:27.789984,15.27578887,.00015549,43.0021,75.6723,282.6139,77.4539,0,U,58684,999,9348,-.9551863E-5,-.525E-5,0
STARLINK-31121,2023-211U,2025-09-01T05:32:20.905728,15.27574370,.00008838,43.0024,74.8612,295.0488,65.0272,0,U,58685,999,9349,.49421864E-4,.1098E-4,0
STARLINK-31137,2023-211V,2025-08-31T22:33:21.833856,15.27576399,.00030978,43.0016,76.9801,242.2537,117.8001,0,U,58686,999,9344,.18408328E-3,.4806E-4,0
STARLINK-31139,2023-211X,2025-09-01T05:12:33.991776,15.26218973,.00017291,42.9988,74.7938,270.1150,89.9503,0,U,58688,999,9349,.71029622E-3,.18543E-3,0
STARLINK-31106,2023-211Y,2025-09-01T06:13:03.544320,15.27572028,.00013822,43.0034,75.0793,255.9411,104.1287,0,U,58689,999,9349,.98579837E-4,.2451E-4,0
HULIANWANG JISHU SHIYAN 4A,2023-212A,2025-09-01T05:49:22.113120,13.41439377,.00004405,50.0013,322.3039,296.9101,63.1731,0,U,58691,999,8246,.64244782E-4,-.92E-6,0
HULIANWANG JISHU SHIYAN 4B,2023-212B,2025-09-01T05:40:44.659200,13.41437708,.00007474,49.9981,322.7648,292.4017,67.6781,0,U,58692,999,8246,.91515288E-4,-.77E-6,0
HULIANWANG JISHU SHIYAN 4C,2023-212C,2025-09-01T05:45:15.162912,13.41432943,.00007677,49.9995,322.8460,269.9785,90.1004,0,U,58693,999,8247,.78022835E-4,-.85E-6,0
OVZON-3,2024-003A,2025-09-01T01:39:38.485152,1.00274405,.00004219,0.0138,177.6556,267.4245,340.0288,0,U,58698,999,453,0,.54E-6,0
TIANMU-1 15,2024-004A,2025-09-01T06:32:18.884256,15.22761821,.00053223,97.4681,66.2260,296.5193,63.5498,0,U,58700,999,9174,.40426521E-3,.9376E-4,0
TIANMU-1 16,2024-004B,2025-09-01T07:41:24.294048,15.22806315,.00057219,97.4617,65.7531,302.4736,57.5947,0,U,58701,999,9175,.41964055E-3,.9749E-4,0
TIANMU-1 17,2024-004C,2025-09-01T07:11:34.327104,15.22739350,.00044294,97.4654,66.1076,293.2190,66.8580,0,U,58702,999,9174,.39451149E-3,.9141E-4,0
TIANMU-1 18,2024-004D,2025-09-01T06:51:45.258336,15.22849197,.00040735,97.4671,66.2585,290.8600,69.2200,0,U,58703,999,9174,.3803144E-3,.8837E-4,0
STARLINK-11072 [DTC],2024-002A,2025-09-01T01:24:15.973344,15.69707688,.00008314,53.1580,128.8352,69.3483,290.7624,0,U,58705,999,9665,.7493598E-5,.32E-5,0
STARLINK-11075 [DTC],2024-002B,2025-09-01T01:31:20.142048,15.69708558,.00015754,53.1599,128.8727,54.6610,305.4555,0,U,58706,999,9665,.3759596E-5,-.134E-5,0
STARLINK-11077 [DTC],2024-002C,2025-08-31T22:35:01.210272,15.69711933,.00010918,53.1581,129.5116,94.6247,265.4895,0,U,58707,999,9663,.11625677E-4,.82E-5,0
STARLINK-11079 [DTC],2024-002D,2025-09-01T02:48:53.388576,15.69702688,.00008244,53.1587,128.4837,93.7874,266.3239,0,U,58708,999,9666,-.5147554E-5,-.1211E-4,0
STARLINK-11076 [DTC],2024-002E,2025-09-01T02:41:49.326144,15.69709969,.00010065,53.1592,128.4567,80.9801,279.1331,0,U,58709,999,9666,.2006512E-5,-.345E-5,0
STARLINK-11078 [DTC],2024-002F,2025-09-01T02:34:44.992416,15.69715756,.00009246,53.1596,128.4248,71.0407,289.0711,0,U,58710,999,9666,.617581E-6,-.513E-5,0
STARLINK-31031,2024-002G,2025-09-01T03:31:10.530624,15.30209852,.00011223,53.1624,30.4705,72.8381,287.2743,0,U,58711,999,9299,.11881983E-3,.3163E-4,0
STARLINK-31029,2024-002H,2025-09-01T02:51:41.036544,15.30181757,.00010136,53.1617,30.3024,87.3769,272.7348,0,U,58712,999,9299,-.77145446E-4,-.2642E-4,0
STARLINK-30973,2024-002J,2025-09-01T03:00:47.927808,15.30190388,.00012,53.1622,30.3423,90.9373,269.1766,0,U,58713,999,9299,-.10302627E-4,-.664E-5,0
STARLINK-31100,2024-002K,2025-09-01T03:05:21.522048,15.30186502,.00010533,53.1619,30.3575,103.7086,256.4032,0,U,58714,999,9299,.21102793E-4,.266E-5,0
STARLINK-31102,2024-002L,2025-08-31T19:50:02.135904,15.30196951,.0001134,53.1623,32.0238,82.2260,277.8870,0,U,58715,999,9294,.42168377E-4,.89E-5,0
